[
    {
        "id": 1017109,
        "name": "Black Widow",
        "city": "Albany",
        "state": "NY",
        "zip": "12205",
        "thumbnail": "colleen_papa.jpg"
    },
    {
        "id": 1017105,
        "name": "Captain America",
        "city": "Loudonville",
        "state": "NY",
        "zip": "12211",
        "thumbnail": "john_papa.jpg"
    },
    {
        "id": 1017108,
        "name": "Hawkeye",
        "city": "Bothell",
        "state": "WA",
        "zip": "98012",
        "thumbnail": "ward_bell.jpg"
    },
    {
        "id": 1017104,
        "name": "Iron Man",
        "city": "Orlando",
        "state": "FL",
        "zip": "33746",
        "thumbnail": "jesse_liberty.jpg"
    },
    {
        "id": 1017106,
        "name": "Thor",
        "city": "Raleigh",
        "state": "NC",
        "zip": "27601",
        "thumbnail": "jason_salmond.jpg"
    },
    {
        "id": 4444441,
        "name": "Hulk",
        "city": "Grand Rapids",
        "state": "MI",
        "zip": "49503",
        "thumbnail": "tim_heuer.jpg"
    },
    {
        "id": 4444442,
        "name": "Harry Potter",
        "city": "Seattle",
        "state": "WA",
        "zip": "98101",
        "thumbnail": "elijah_manor.jpg"
    },
    {
        "id": 4444443,
        "name": "Bilbo Baggins",
        "city": "Phoenix",
        "state": "AZ",
        "zip": "85007",
        "thumbnail": "esteban_garcia.jpg"
    },
    {
        "id": 4444444,
        "name": "Aragorn",
        "city": "Nome",
        "state": "AK",
        "zip": "99762",
        "thumbnail": "howard_dierking.jpg"
    },
    {
        "id": 4444445,
        "name": "Percy Jackson",
        "city": "Baltimore",
        "state": "MD",
        "zip": "21117",
        "thumbnail": "fritz_onion.jpg"
    },
    {
        "id": 4444446,
        "name": "Allanon",
        "city": "Dallas",
        "state": "TX",
        "zip": "75212",
        "thumbnail": "dan_wahlin.jpg"
    },
    {
        "id": 4444447,
        "name": "Menion Leah",
        "city": "Highlands",
        "state": "TX",
        "zip": "77562",
        "thumbnail": "brad_green.jpg"
    },
    {
        "id": 4444448,
        "name": "Severus Snape",
        "city": "San Francisco",
        "state": "CA",
        "zip": "94111",
        "thumbnail": "keith_sparkjoy.jpg"
    },
    {
        "id": 4444449,
        "name": "Sirius Black",
        "city": "New York City",
        "state": "NY",
        "zip": "10001",
        "thumbnail": "john_papa.jpg"
    },
    {
        "id": 4444450,
        "name": "Gandalf",
        "city": "New Haven",
        "state": "CN",
        "zip": "06501",
        "thumbnail": "rob_eisenberg.jpg"
    },
    {
        "id": 4444451,
        "name": "Arwen",
        "city": "Portland",
        "state": "OR",
        "zip": "97211",
        "thumbnail": "julie_lerman.jpg"
    }
]